GPS BIIA-10 (PRN 32)    
1 20959U 90103A   14258.11675242 -.00000001  00000-0  00000+0 0  4992
2 20959  54.2878 205.3948 0114442 353.8968   5.9471  2.00566048174335
GPS BIIA-14 (PRN 26)    
1 22014U 92039A   14259.11365314  .00000014  00000-0  00000+0 0  2882
2 22014  55.8012 266.2085 0209870  73.8358  63.2487  2.00562170156073
GPS BIIA-23 (PRN 04)    
1 22877U 93068A   14259.03034225 -.00000044  00000-0  00000+0 0  8898
2 22877  53.7893 139.9364 0108814  61.0131 250.6688  2.00759676153064
GPS BIIA-26 (PRN 10)    
1 23953U 96041A   14259.09094977 -.00000016  00000-0  00000+0 0  5395
2 23953  53.9618 201.2168 0137958  49.8720 180.4208  2.00569511133143
GPS BIIR-2  (PRN 13)    
1 24876U 97035A   14259.48445132  .00000016  00000-0  00000+0 0  9922
2 24876  55.9516 266.7190 0050830 135.0649  14.3916  2.00552737125682
GPS BIIA-28 (PRN 08)    
1 25030U 97067A   14259.33831855 -.00000087  00000-0  00000+0 0  9610
2 25030  57.0680 327.7720 0147056 205.3611 140.8605  2.00738898123574
GPS BIIR-3  (PRN 11)    
1 25933U 99055A   14258.53471465 -.00000039  00000-0  10000-3 0  4177
2 25933  51.0672 121.8601 0152500  76.1769 285.5926  2.00558537109487
GPS BIIR-4  (PRN 20)    
1 26360U 00025A   14259.44147154 -.00000027  00000-0  00000+0 0  5316
2 26360  53.0927 196.7771 0057794  75.3257 130.2481  2.00556969105191
GPS BIIR-5  (PRN 28)    
1 26407U 00040A   14259.46320127 -.00000074  00000-0  00000+0 0  4759
2 26407  56.5827  24.3120 0195895 262.0355  74.7517  2.00563506103862
GPS BIIR-6  (PRN 14)    
1 26605U 00071A   14259.26591552  .00000015  00000-0  00000+0 0  4814
2 26605  55.5239 264.8560 0081134 247.1714 238.0633  2.00558144101459
GPS BIIR-7  (PRN 18)    
1 26690U 01004A   14259.30971809 -.00000022  00000-0  00000+0 0  3668
2 26690  53.0313 199.8162 0156947 245.0496   4.9798  2.00556450 99864
GPS BIIR-8  (PRN 16)    
1 27663U 03005A   14259.39498510 -.00000074  00000-0  00000+0 0  8026
2 27663  56.6655  23.9906 0075952  11.8009  34.0181  2.00565306 85226
GPS BIIR-9  (PRN 21)    
1 27704U 03010A   14259.29943190 -.00000044  00000-0  00000+0 0  6807
2 27704  53.4436 139.9696 0218110 245.9140  51.8566  2.00561032 84022
GPS BIIR-10 (PRN 22)    
1 28129U 03058A   14259.36481900 -.00000023  00000-0  00000+0 0  2549
2 28129  52.9046 199.9095 0075485 243.1489  12.9021  2.00557255 78722
GPS BIIR-11 (PRN 19)    
1 28190U 04009A   14258.88945296 -.00000011  00000-0  00000+0 0  2595
2 28190  55.4006  85.9283 0105200  27.4419 287.5508  2.00566106 76893
GPS BIIR-12 (PRN 23)    
1 28361U 04023A   14258.92482262  .00000014  00000-0  00000+0 0   719
2 28361  54.4756 261.0116 0098000 204.7253 286.7235  2.00556762 74973
GPS BIIR-13 (PRN 02)    
1 28474U 04045A   14259.17185940 -.00000043  00000-0  00000+0 0  9722
2 28474  53.8459 139.0295 0138981 223.6995  89.6511  2.00562516 72349
GPS BIIRM-1 (PRN 17)    
1 28874U 05038A   14259.11111095 -.00000009  00000-0  00000+0 0  2076
2 28874  55.5672  83.0290 0096792 240.3760 135.0616  2.00566556 65747
GPS BIIRM-2 (PRN 31)    
1 29486U 06042A   14259.26554547 -.00000081  00000-0  00000+0 0  6233
2 29486  56.0083 322.3159 0082086 322.1851  85.3370  2.00569269 58462
GPS BIIRM-3 (PRN 12)    
1 29601U 06052A   14259.13944001 -.00000075  00000-0  00000+0 0  4351
2 29601  56.6321  22.9348 0049458  26.3134 332.5277  2.00579406 57363
GPS BIIRM-4 (PRN 15)    
1 32260U 07047A   14258.70782027  .00000013  00000-0  00000+0 0  3519
2 32260  53.6107 258.2495 0065143  13.9152 162.2292  2.00552402 50742
GPS BIIRM-5 (PRN 29)    
1 32384U 07062A   14259.23078336 -.00000007  00000-0  00000+0 0  3797
2 32384  55.6114  83.5487 0013307 307.3520  20.1146  2.00568457 49489
GPS BIIRM-6 (PRN 07)    
1 32711U 08012A   14258.86849682 -.00000082  00000-0  10000-3 0  1319
2 32711  55.7265 321.9510 0079549 201.7559 157.9611  2.00570871 47696
GPS BIIRM-8 (PRN 05)    
1 35752U 09043A   14259.17216122 -.00000018  00000-0  00000+0 0  8988
2 35752  54.2599 200.2620 0037652  16.0578 229.3870  2.00561948 37275
GPS BIIF-1  (PRN 25)    
1 36585U 10022A   14259.31689749 -.00000081  00000-0  00000+0 0  7087
2 36585  55.9820  20.4240 0035112  38.1972  58.9920  2.00578584 31525
GPS BIIF-2  (PRN 01)    
1 37753U 11036A   14258.32471486 -.00000040  00000-0  00000+0 0  1762
2 37753  55.0743 140.8990 0034398  20.0905 161.2278  2.00563509 23186
GPS BIIF-3  (PRN 24)    
1 38833U 12053A   14258.05983614 -.00000082  00000-0  00000+0 0  7316
2 38833  54.7706 319.8909 0021885   7.6520 352.4395  2.00559743 14246
GPS BIIF-4  (PRN 27)    
1 39166U 13023A   14257.91344926 -.00000020  00000-0  10000-3 0  5028
2 39166  55.2678  80.4283 0014075  10.7675 349.3062  2.00563184  9766
GPS BIIF-5  (PRN 30)    
1 39533U 14008A   14258.41103708 -.00000088  00000-0  00000+0 0  2416
2 39533  54.9036 325.0017 0010257 189.5025 170.5342  2.00564530  4141
GPS BIIF-6  (PRN 06)    
1 39741U 14026A   14258.69389229 -.00000041  00000-0  00000+0 0  1116
2 39741  55.0732 140.3956 0003099 145.3158 214.7630  2.00572832  2435
